[{"OBJECT_NAME":"STARLINK-3732","OBJECT_ID":"2022-029AQ","EPOCH":"2026-03-09T05:36:16.832160","MEAN_MOTION":15.08837305,"ECCENTRICITY":0.00013239,"INCLINATION":53.2172,"RA_OF_ASC_NODE":71.1684,"ARG_OF_PERICENTER":89.5387,"MEAN_ANOMALY":270.5757,"EPHEMERIS_TYPE":0,"CLASSIFICATION_TYPE":"U","NORAD_CAT_ID":52126,"ELEMENT_SET_NO":999,"REV_AT_EPOCH":22085,"BSTAR":-1.4412665e-5,"MEAN_MOTION_DOT":-5.17e-6,"MEAN_MOTION_DDOT":0},{"OBJECT_NAME":"NOAA 16 DEB","OBJECT_ID":"2000-055JP","EPOCH":"2026-03-07T06:03:41.025888","MEAN_MOTION":15.14327742,"ECCENTRICITY":0.002834,"INCLINATION":98.88,"RA_OF_ASC_NODE":0.7915,"ARG_OF_PERICENTER":107.2535,"MEAN_ANOMALY":253.1797,"EPHEMERIS_TYPE":0,"CLASSIFICATION_TYPE":"U","NORAD_CAT_ID":41370,"ELEMENT_SET_NO":999,"REV_AT_EPOCH":54059,"BSTAR":0.01119,"MEAN_MOTION_DOT":0.00212823,"MEAN_MOTION_DDOT":0}]
